[{"OBJECT_NAME":"FLOCK 4G-21","OBJECT_ID":"2025-009AU","EPOCH":"2026-03-09T04:40:37.351200","MEAN_MOTION":15.28381075,"ECCENTRICITY":4.655e-5,"INCLINATION":97.4032,"RA_OF_ASC_NODE":151.1274,"ARG_OF_PERICENTER":329.5782,"MEAN_ANOMALY":30.5431,"EPHEMERIS_TYPE":0,"CLASSIFICATION_TYPE":"U","NORAD_CAT_ID":62651,"ELEMENT_SET_NO":999,"REV_AT_EPOCH":6367,"BSTAR":0.00049618643,"MEAN_MOTION_DOT":0.00013648,"MEAN_MOTION_DDOT":0},{"OBJECT_NAME":"STARLINK-33686","OBJECT_ID":"2025-065Z","EPOCH":"2026-03-09T11:01:03.255744","MEAN_MOTION":15.27595088,"ECCENTRICITY":0.00012654,"INCLINATION":42.9974,"RA_OF_ASC_NODE":108.4015,"ARG_OF_PERICENTER":261.587,"MEAN_ANOMALY":98.4839,"EPHEMERIS_TYPE":0,"CLASSIFICATION_TYPE":"U","NORAD_CAT_ID":63422,"ELEMENT_SET_NO":999,"REV_AT_EPOCH":5280,"BSTAR":0.0010038045,"MEAN_MOTION_DOT":0.00027476,"MEAN_MOTION_DDOT":0}]
